TANSAT                  
1 41898U 16081A   26184.69698156  .00000124  00000+0  36278-4 0  9993
2 41898  98.5361 185.4427 0019090 258.0520 101.8539 14.59963345507037
JILIN-1 03              
1 41914U 17002B   26183.79745217  .00013548  00000+0  31975-3 0  9999
2 41914  97.1945 190.6650 0007956 111.9219 248.2876 15.41959394524260
CARTOSAT-2D             
1 41948U 17008A   26184.69022569  .00006247  00000+0  29978-3 0  9998
2 41948  97.4095 243.6879 0004918 173.1469 186.9834 15.19213920520081
CARTOSAT-2E             
1 42767U 17036C   26184.64211719  .00006460  00000+0  30921-3 0  9998
2 42767  97.4261 244.1738 0002505 235.1215 124.9785 15.19297673500648
IRIDIUM 113             
1 42803U 17039A   26183.65920269  .00000278  00000+0  92164-4 0  9998
2 42803  86.3986 315.7110 0002184  90.7418 269.4028 14.34219033473400
NORSAT 2                
1 42828U 17042D   26183.74005782  .00010557  00000+0  46158-3 0  9995
2 42828  97.4046 356.9365 0009256   5.2078 354.9253 15.22224512490108
TECHNOSAT               
1 42829U 17042E   26183.67421031  .00003012  00000+0  21541-3 0  9994
2 42829  97.4294 340.7445 0018578  44.9209 315.3517 15.05047398489037
FLYING LAPTOP           
1 42831U 17042G   26184.64940449  .00003002  00000+0  23721-3 0  9995
2 42831  97.4764 339.5560 0019966  69.1699 291.1662 15.01251005488927
WNISAT 1R               
1 42835U 17042L   26183.68309622  .00002564  00000+0  20074-3 0  9994
2 42835  97.4839 339.2517 0011986 101.6600 258.5971 15.01826583488830
LEMUR-2-GREENBERG       
1 42837U 17042N   26183.76750223  .00017912  00000+0  58454-3 0  9998
2 42837  97.3822   4.3251 0007326 312.9409  47.1217 15.31811302490772
LEMUR-2-FURIAUS         
1 42840U 17042R   26183.44524626  .00020324  00000+0  68474-3 0  9997
2 42840  97.3770   1.9246 0007035  18.4944 341.6552 15.30756022490549
CORVUS BC2              
1 42846U 17042X   26183.40685671  .00004259  00000+0  29262-3 0  9998
2 42846  97.4073 344.1660 0014119  63.2233 297.0438 15.06389012489352
CORVUS BC1              
1 42847U 17042Y   26183.73188120  .00004599  00000+0  31433-3 0  9992
2 42847  97.4113 345.3026 0012577  40.7159 319.5007 15.06558945489434
VRSS-2                  
1 42954U 17060A   26184.67025807  .00001342  00000+0  17821-3 0  9995
2 42954  97.6499 221.6545 0018339  49.5022 310.7786 14.81223465470897
MOHAMMED VI-A           
1 43005U 17070A   26184.53679713  .00000554  00000+0  85659-4 0  9999
2 43005  97.9555 256.6427 0001174  81.5085 278.6259 14.77089799466394
FENGYUN 3D              
1 43010U 17072A   26184.63844244 -.00000120  00000+0 -34912-4 0  9998
2 43010  99.0135 159.3588 0002100  35.2465 324.8849 14.19741528447324
NOAA 20 (JPSS-1)        
1 43013U 17073A   26184.56561738  .00000080  00000+0  59079-4 0  9992
2 43013  98.7772 123.8828 0000907 132.6737 227.4515 14.19514774446799
MAKERSAT 0              
1 43016U 17073D   26182.74249883  .00021095  00000+0  56439-3 0  9992
2 43016  97.4602  65.3778 0104893 220.3477 138.9950 15.32570583468697
RADFXSAT (FOX-1B)       
1 43017U 17073E   26183.15636973  .00007671  00000+0  33553-3 0  9995
2 43017  97.4681  50.0656 0148185 277.0157  81.4241 15.12917223467651
JILIN-1 04              
1 43022U 17074A   26183.84875264  .00015741  00000+0  36057-3 0  9995
2 43022  97.4875 293.8832 0005024 132.1502 228.0173 15.42851838476682
JILIN-1 05              
1 43023U 17074B   26183.84199796  .00008979  00000+0  27422-3 0  9996
2 43023  97.4879 290.2105 0005732 159.9648 200.1821 15.34119853476401
JILIN-1 06              
1 43024U 17074C   26183.81573554  .00007167  00000+0  22103-3 0  9991
2 43024  97.4805 287.1733 0007099 172.8106 187.3239 15.33880531476231
IRIDIUM 116             
1 43072U 17083C   26183.84313869  .00000073  00000+0  18867-4 0  9990
2 43072  86.3978 315.4555 0002298 100.9762 259.1693 14.34218003446413
IRIDIUM 130             
1 43073U 17083D   26183.81142505  .00000046  00000+0  92457-5 0  9993
2 43073  86.3988 315.7458 0002063  98.6739 261.4690 14.34217543446351
LKW-2                   
1 43080U 17084A   26184.67928166  .00007122  00000+0  27495-3 0  9992
2 43080  97.1177 223.7056 0002728 137.8360 222.3090 15.26559241474206
SUPERVIEW-1 03          
1 43099U 18002A   26184.67505797  .00018812  00000+0  45699-3 0  9998
2 43099  97.3132 269.4926 0047427 121.3835 239.2063 15.39853200470908
CARTOSAT-2F             
1 43111U 18004A   26184.67458708  .00004676  00000+0  22545-3 0  9992
2 43111  97.4778 244.1481 0001735 154.3157 205.8164 15.19196779469831
LKW-3                   
1 43146U 18006A   26184.67262851  .00011199  00000+0  32633-3 0  9991
2 43146  97.6626 345.8950 0001959 227.9892 132.1184 15.35561035471245
