OBJECT_NAME,OBJECT_ID,EPOCH,MEAN_MOTION,ECCENTRICITY,INCLINATION,RA_OF_ASC_NODE,ARG_OF_PERICENTER,MEAN_ANOMALY,EPHEMERIS_TYPE,CLASSIFICATION_TYPE,NORAD_CAT_ID,ELEMENT_SET_NO,REV_AT_EPOCH,BSTAR,MEAN_MOTION_DOT,MEAN_MOTION_DDOT
TANSAT,2016-081A,2026-07-03T16:43:39.206784,14.59963345,.00190904,98.5361,185.4427,258.0520,101.8539,0,U,41898,999,50703,.3627792E-4,.124E-5,0
JILIN-1 03,2017-002B,2026-07-02T19:08:19.867488,15.41959394,.00079568,97.1945,190.6650,111.9219,248.2876,0,U,41914,999,52426,.31974754E-3,.13548E-3,0
CARTOSAT-2D,2017-008A,2026-07-03T16:33:55.499616,15.19213920,.00049183,97.4095,243.6879,173.1469,186.9834,0,U,41948,999,52008,.29978292E-3,.6247E-4,0
CARTOSAT-2E,2017-036C,2026-07-03T15:24:38.925216,15.19297673,.00025051,97.4261,244.1738,235.1215,124.9785,0,U,42767,999,50064,.30920754E-3,.646E-4,0
IRIDIUM 113,2017-039A,2026-07-02T15:49:15.112416,14.34219033,.00021847,86.3986,315.7110,90.7418,269.4028,0,U,42803,999,47340,.92164277E-4,.278E-5,0
NORSAT 2,2017-042D,2026-07-02T17:45:40.995648,15.22224512,.0009256,97.4046,356.9365,5.2078,354.9253,0,U,42828,999,49010,.46157873E-3,.10557E-3,0
TECHNOSAT,2017-042E,2026-07-02T16:10:51.770784,15.05047398,.00185788,97.4294,340.7445,44.9209,315.3517,0,U,42829,999,48903,.21541223E-3,.3012E-4,0
FLYING LAPTOP,2017-042G,2026-07-03T15:35:08.547936,15.01251005,.00199668,97.4764,339.5560,69.1699,291.1662,0,U,42831,999,48892,.23720779E-3,.3002E-4,0
WNISAT 1R,2017-042L,2026-07-02T16:23:39.513408,15.01826583,.00119866,97.4839,339.2517,101.6600,258.5971,0,U,42835,999,48883,.20073535E-3,.2564E-4,0
LEMUR-2-GREENBERG,2017-042N,2026-07-02T18:25:12.192672,15.31811302,.00073266,97.3822,4.3251,312.9409,47.1217,0,U,42837,999,49077,.5845367E-3,.17912E-3,0
LEMUR-2-FURIAUS,2017-042R,2026-07-02T10:41:09.276864,15.30756022,.0007035,97.3770,1.9246,18.4944,341.6552,0,U,42840,999,49054,.68474E-3,.20324E-3,0
CORVUS BC2,2017-042X,2026-07-02T09:45:52.419744,15.06389012,.0014119,97.4073,344.1660,63.2233,297.0438,0,U,42846,999,48935,.29262E-3,.4259E-4,0
CORVUS BC1,2017-042Y,2026-07-02T17:33:54.535680,15.06558945,.00125774,97.4113,345.3026,40.7159,319.5007,0,U,42847,999,48943,.31432815E-3,.4599E-4,0
VRSS-2,2017-060A,2026-07-03T16:05:10.297248,14.81223465,.0018339,97.6499,221.6545,49.5022,310.7786,0,U,42954,999,47089,.17820958E-3,.1342E-4,0
MOHAMMED VI-A,2017-070A,2026-07-03T12:52:59.272032,14.77089799,.00011744,97.9555,256.6427,81.5085,278.6259,0,U,43005,999,46639,.85658608E-4,.554E-5,0
FENGYUN 3D,2017-072A,2026-07-03T15:19:21.426816,14.19741528,.00021006,99.0135,159.3588,35.2465,324.8849,0,U,43010,999,44732,-.34912222E-4,-.12E-5,0
NOAA 20 (JPSS-1),2017-073A,2026-07-03T13:34:29.341632,14.19514774,.00009074,98.7772,123.8828,132.6737,227.4515,0,U,43013,999,44679,.59079122E-4,.8E-6,0
MAKERSAT 0,2017-073D,2026-07-01T17:49:11.898912,15.32570583,.01048938,97.4602,65.3778,220.3477,138.9950,0,U,43016,999,46869,.56438682E-3,.21095E-3,0
RADFXSAT (FOX-1B),2017-073E,2026-07-02T03:45:10.344672,15.12917223,.01481852,97.4681,50.0656,277.0157,81.4241,0,U,43017,999,46765,.33553019E-3,.7671E-4,0
JILIN-1 04,2017-074A,2026-07-02T20:22:12.228096,15.42851838,.0005024,97.4875,293.8832,132.1502,228.0173,0,U,43022,999,47668,.36057422E-3,.15741E-3,0
JILIN-1 05,2017-074B,2026-07-02T20:12:28.623744,15.34119853,.00057323,97.4879,290.2105,159.9648,200.1821,0,U,43023,999,47640,.27422049E-3,.8979E-4,0
JILIN-1 06,2017-074C,2026-07-02T19:34:39.550656,15.33880531,.00070997,97.4805,287.1733,172.8106,187.3239,0,U,43024,999,47623,.22102827E-3,.7167E-4,0
IRIDIUM 116,2017-083C,2026-07-02T20:14:07.182816,14.34218003,.00022981,86.3978,315.4555,100.9762,259.1693,0,U,43072,999,44641,.18867264E-4,.73E-6,0
IRIDIUM 130,2017-083D,2026-07-02T19:28:27.124320,14.34217543,.00020632,86.3988,315.7458,98.6739,261.4690,0,U,43073,999,44635,.9245663E-5,.46E-6,0
LKW-2,2017-084A,2026-07-03T16:18:09.935424,15.26559241,.00027282,97.1177,223.7056,137.8360,222.3090,0,U,43080,999,47420,.27494876E-3,.7122E-4,0
SUPERVIEW-1 03,2018-002A,2026-07-03T16:12:05.008608,15.39853200,.00474272,97.3132,269.4926,121.3835,239.2063,0,U,43099,999,47090,.45698967E-3,.18812E-3,0
CARTOSAT-2F,2018-004A,2026-07-03T16:11:24.323712,15.19196779,.00017359,97.4778,244.1481,154.3157,205.8164,0,U,43111,999,46983,.22545225E-3,.4676E-4,0
LKW-3,2018-006A,2026-07-03T16:08:35.103264,15.35561035,.00019591,97.6626,345.8950,227.9892,132.1184,0,U,43146,999,47124,.32632673E-3,.11199E-3,0
